QIANFAN-1               
1 60379U 24140A   25291.29240073  .00000067  00000+0  84923-4 0  9994
2 60379  88.9739 305.0321 0018150  21.7797 338.4122 13.50976460 59865
QIANFAN-2               
1 60380U 24140B   25291.32120498  .00000067  00000+0  84920-4 0  9995
2 60380  88.9725 304.8760 0012472 356.9909   3.1165 13.50968618 59921
QIANFAN-3               
1 60381U 24140C   25291.32949064  .00000080  00000+0  10493-3 0  9992
2 60381  88.9718 305.0119 0014048   8.7261 351.4132 13.50968602 59835
QIANFAN-4               
1 60382U 24140D   25291.30475381  .00000048  00000+0  55085-4 0  9998
2 60382  88.9741 304.8982 0012802 359.5099   0.6037 13.50975462 59951
QIANFAN-5               
1 60383U 24140E   25291.28010365  .00000070  00000+0  90066-4 0  9996
2 60383  88.9716 305.0426 0015716  19.0541 341.1195 13.50971951 59819
QIANFAN-6               
1 60384U 24140F   25291.30070999  .00000054  00000+0  65186-4 0  9996
2 60384  88.9743 304.7718 0013133   5.3407 354.7882 13.50973162 60013
QIANFAN-7               
1 60385U 24140G   25291.30174178  .00000329  00000+0  12765-3 0  9990
2 60385  88.9751 300.2462 0013507 216.0062 144.0224 14.27578929 62483
QIANFAN-8               
1 60386U 24140H   25291.30889177  .00000058  00000+0  71635-4 0  9994
2 60386  88.9745 305.0076 0016642   5.5870 354.5463 13.50971287 59862
